[{"OBJECT_NAME":"ONEWEB-0351","OBJECT_ID":"2021-083AF","EPOCH":"2026-03-09T15:20:10.527072","MEAN_MOTION":13.20771594,"ECCENTRICITY":0.0002377,"INCLINATION":87.917,"RA_OF_ASC_NODE":294.3149,"ARG_OF_PERICENTER":98.8271,"MEAN_ANOMALY":261.3131,"EPHEMERIS_TYPE":0,"CLASSIFICATION_TYPE":"U","NORAD_CAT_ID":49215,"ELEMENT_SET_NO":999,"REV_AT_EPOCH":22363,"BSTAR":-0.00037363,"MEAN_MOTION_DOT":-1.39e-6,"MEAN_MOTION_DDOT":0},{"OBJECT_NAME":"SL-14 DEB","OBJECT_ID":"1991-056L","EPOCH":"2026-03-09T20:31:07.530528","MEAN_MOTION":13.17697969,"ECCENTRICITY":0.00265082,"INCLINATION":82.5391,"RA_OF_ASC_NODE":205.444,"ARG_OF_PERICENTER":37.6548,"MEAN_ANOMALY":322.6423,"EPHEMERIS_TYPE":0,"CLASSIFICATION_TYPE":"U","NORAD_CAT_ID":45274,"ELEMENT_SET_NO":999,"REV_AT_EPOCH":29164,"BSTAR":0.0006773627,"MEAN_MOTION_DOT":2.76e-6,"MEAN_MOTION_DDOT":0}]
